#aV2021 10 18  0  0  0.00000000     288 DD+AD WGS84 FIT  NGA
## 2180  86400.00000000   300.00000000 59505 0.0000000000000
+   32     1  2  3  4  5  6  7  8  9 10 11 12 13 14 15 16 17
+         18 19 20 21 22 23 24 25 26 27 28 29 30 31 32  0  0
+          0  0  0  0  0  0  0  0  0  0  0  0  0  0  0  0  0
+          0  0  0  0  0  0  0  0  0  0  0  0  0  0  0  0  0
+          0  0  0  0  0  0  0  0  0  0  0  0  0  0  0  0  0
++         2  2  2  2  2  2  2  2  2  2  2  2  2  2  2  2  2
++         2  2  2  2  2  2  2  2  2  2  2  2  2  2  2  0  0
++         0  0  0  0  0  0  0  0  0  0  0  0  0  0  0  0  0
++         0  0  0  0  0  0  0  0  0  0  0  0  0  0  0  0  0
++         0  0  0  0  0  0  0  0  0  0  0  0  0  0  0  0  0
%c cc cc ccc ccc cccc cccc cccc cccc ccccc ccccc ccccc ccccc
%c cc cc ccc ccc cccc cccc cccc cccc ccccc ccccc ccccc ccccc
%f  0.0000000  0.000000000  0.00000000000  0.000000000000000
%f  0.0000000  0.000000000  0.00000000000  0.000000000000000
%i    0    0    0    0      0      0      0      0         0
%i    0    0    0    0      0      0      0      0         0
/*      NGA, ST. LOUIS,MO.                                  
/*   EPHEMERIS COMPUTED FROM 2 DAYS OF DATA                 
/*   EPOCHA v7 SMOOTHER                                     
/*   G2139 IERS2010 SATIGS SATAPC                           
*  2021 10 18 20 55  0.00000000
P  1 -18797.571832  -8883.701523  16448.972721    535.581746                    
V  1 -10575.081478 -18437.548562 -21359.173831     -0.107483                    
P  2  13957.513119  22293.837154   3996.789143   -638.069715                    
V  2  -4737.320346  -1720.526514  31362.631521     -0.017995                    
P  3 -16493.682888   1519.897528  20635.153736   -329.686933                    
V  3  10888.203872 -24106.267624  10523.142204     -0.133210                    
P  4 -26489.694167   -767.378587   2288.397522   -203.475147                    
V  4   2810.741829  -2835.111277  31533.765927      0.005221                    
P  5  10219.604468  13109.886105 -20848.210607    -58.108106                    
V  5 -11466.359979  23510.779530   9389.584663     -0.012578                    
P  6   2634.060079  21830.201016  14918.130749     97.540880                    
V  6 -11674.156189 -14824.673297  23906.885116      0.083457                    
P  7 -13474.879698   7216.486249 -21365.767622    264.591447                    
V  7 -15464.176865 -23376.058195   1342.372321      0.061519                    
P  8 -22233.172299  -7121.422342 -12970.677703    -40.599716                    
V  8  16102.703179  -3280.195518 -25510.674064     -0.014044                    
P  9 -23715.199019   8237.822387  -8785.781672   -361.860791                    
V  9 -11249.382725  -1817.041414  28871.237032     -0.001066                    
P 10  11411.481744 -23806.888988    312.210644   -226.791802                    
V 10   2592.507059    985.391757 -32156.696874     -0.081400                    
P 11  11155.915008  23850.110377   3543.507177     21.245763                    
V 11  -4669.060287  -2487.051443  31328.107038      0.000136                    
P 12  16036.912288    833.583295  20878.942022   -113.480950                    
V 12 -12990.755223  23786.656867   9050.482119     -0.054922                    
P 13  15646.016707  12989.702895 -17315.287455    201.536983                    
V 13 -21667.185339     -6.072726 -19605.172544      0.055643                    
P 14 -12522.500023  23386.452317    313.516277    -21.538639                    
V 14  -2873.436210  -1114.134555 -31657.311455     -0.074589                    
P 15  23116.288509   5286.564063 -12690.992594   -112.984629                    
V 15 -14672.565079   5534.755002 -24874.297665      0.027850                    
P 16  -5806.777027 -16655.889146 -19960.505607   -409.270502                    
V 16  14029.989076 -20624.418944  13744.386167     -0.063224                    
P 17 -13540.132094  12951.302553  19268.471589    521.061853                    
V 17 -23492.528598   -882.323036 -16274.292553      0.054491                    
P 18  12088.675781  -8956.234437 -21894.536821    308.418354                    
V 18  15063.745065  23309.255908  -1312.642838     -0.051564                    
P 19  -4014.548037  14396.049375  21675.955621     67.611532                    
V 19 -28085.642074  -1533.758638  -4291.643015      0.049929                    
P 20   3663.216388  22389.673317 -14045.872646    518.573231                    
V 20  -7701.403326  16171.911122  23547.647543     -0.001880                    
P 21 -20490.749114 -14462.137834  10233.066495    148.192937                    
V 21  -5758.856034 -10517.294725 -27771.250825      0.014628                    
P 22 -14241.706728  -7033.474457  21467.618008   -486.074638                    
V 22   9435.699919 -25237.517060  -1820.092341      0.091789                    
P 23  16428.201478 -17796.384068 -10831.833686     43.515709                    
V 23  -3580.409290  13477.033271 -27707.238227     -0.046239                    
P 24  20562.278761  11682.534287  12216.316896    255.598476                    
V 24   7583.451978  14177.423607 -25346.032086      0.059300                    
P 25  17813.052124 -10598.898571  16187.607967    226.553703                    
V 25  -7349.776412  19961.367144  21085.730855      0.061279                    
P 26   2653.679683 -24359.405313  -9936.701251    146.269159                    
V 26   8065.128187 -10307.360823  27875.604616      0.039960                    
P 27 -13389.494748 -12437.314330 -19586.826149   -207.964439                    
V 27  24211.783824  -2465.626737 -14762.466371     -0.049422                    
P 28  -8399.038139  24168.256160   8054.383274    480.003945                    
V 28  -6700.652446   6941.087494 -29647.724466     -0.072555                    
P 29  25660.133881  -3738.922435  -5943.381409   -428.144484                    
V 29   7444.797771   2042.357019  31011.296162     -0.054034                    
P 30  -5235.407740  17696.996107 -18947.861211   -483.572956                    
V 30 -14604.619279 -19587.178871 -14442.616773     -0.034664                    
P 31  -3715.089964 -22694.947750  12762.391822   -145.631236                    
V 31  11202.507345  12511.815679  25769.617172     -0.019762                    
P 32   9027.071654 -14865.449233  20139.036334    -11.645464                    
V 32  25398.442018   -670.878571 -12124.496585     -0.041460                    
EOF
